start=new Date('2022-03-24T00:00:00.000Z').valueOf();
sats=[{"TLE_LINE1":"1 44918U 20001E   22082.77104312  .00008204  00000-0  56888-3 0  9990","CENTER_NAME":"EARTH","INCLINATION":"53.0537","ELEMENT_SET_NO":"999","OBJECT_TYPE":"PAYLOAD","ECCENTRICITY":"0.00017740","TIME_SYSTEM":"UTC","RA_OF_ASC_NODE":"2.0898","APOAPSIS":"548.416","PERIAPSIS":"545.959","SEMIMAJOR_AXIS":"6925.322","REF_FRAME":"TEME","OBJECT_NAME":"STARLINK-1099","MEAN_MOTION_DDOT":"0.0000000000000","DECAY_DATE":null,"MEAN_MOTION_DOT":"0.00008204","OBJECT_ID":"2020-001E","PERIOD":"95.592","BSTAR":"0.00056888000000","CLASSIFICATION_TYPE":"U","EPOCH":"2022-03-23T18:30:18.125568","EPHEMERIS_TYPE":"0","TLE_LINE2":"2 44918  53.0537   2.0898 0001774  66.0232 294.0943 15.06408594122509","MEAN_ANOMALY":"294.0943","SITE":"AFETR","REV_AT_EPOCH":"12250","GP_ID":"199536295","FILE":"3371636","MEAN_MOTION":"15.06408594","ARG_OF_PERICENTER":"66.0232","RCS_SIZE":"LARGE","COUNTRY_CODE":"US","MEAN_ELEMENT_THEORY":"SGP4","NORAD_CAT_ID":"44918","LAUNCH_DATE":"2020-01-07"},{"REV_AT_EPOCH":"12167","GP_ID":"199474249","SITE":"AFETR","MEAN_ANOMALY":"304.6073","TLE_LINE2":"2 44920  53.0566   4.7044 0001652  55.5072 304.6073 15.06408084121679","EPHEMERIS_TYPE":"0","NORAD_CAT_ID":"44920","MEAN_ELEMENT_THEORY":"SGP4","LAUNCH_DATE":"2020-01-07","RCS_SIZE":"LARGE","COUNTRY_CODE":"US","MEAN_MOTION":"15.06408084","FILE":"3371208","ARG_OF_PERICENTER":"55.5072","RA_OF_ASC_NODE":"4.7044","ECCENTRICITY":"0.00016520","TIME_SYSTEM":"UTC","ELEMENT_SET_NO":"999","OBJECT_TYPE":"PAYLOAD","TLE_LINE1":"1 44920U 20001G   22082.18866361  .00000177  00000-0  30782-4 0  9994","CENTER_NAME":"EARTH","INCLINATION":"53.0566","BSTAR":"0.00003078200000","EPOCH":"2022-03-23T04:31:40.535904","CLASSIFICATION_TYPE":"U","DECAY_DATE":null,"MEAN_MOTION_DOT":"0.00000177","PERIOD":"95.592","OBJECT_ID":"2020-001G","OBJECT_NAME":"STARLINK-1102","REF_FRAME":"TEME","MEAN_MOTION_DDOT":"0.0000000000000","PERIAPSIS":"546.045","APOAPSIS":"548.333","SEMIMAJOR_AXIS":"6925.324"},{"RA_OF_ASC_NODE":"1.9132","ECCENTRICITY":"0.00015180","TIME_SYSTEM":"UTC","ELEMENT_SET_NO":"999","OBJECT_TYPE":"PAYLOAD","TLE_LINE1":"1 44921U 20001H   22082.80790649  .00003622  00000-0  26196-3 0  9990","INCLINATION":"53.0544","CENTER_NAME":"EARTH","BSTAR":"0.00026196000000","CLASSIFICATION_TYPE":"U","EPOCH":"2022-03-23T19:23:23.120736","DECAY_DATE":null,"MEAN_MOTION_DOT":"0.00003622","OBJECT_ID":"2020-001H","PERIOD":"95.592","REF_FRAME":"TEME","OBJECT_NAME":"STARLINK-1103","MEAN_MOTION_DDOT":"0.0000000000000","APOAPSIS":"548.268","PERIAPSIS":"546.165","SEMIMAJOR_AXIS":"6925.352","REV_AT_EPOCH":"12174","GP_ID":"199534793","MEAN_ANOMALY":"295.1479","SITE":"AFETR","TLE_LINE2":"2 44921  53.0544   1.9132 0001518  64.9667 295.1479 15.06398997121741","EPHEMERIS_TYPE":"0","MEAN_ELEMENT_THEORY":"SGP4","NORAD_CAT_ID":"44921","LAUNCH_DATE":"2020-01-07","RCS_SIZE":"LARGE","COUNTRY_CODE":"US","FILE":"3371636","MEAN_MOTION":"15.06398997","ARG_OF_PERICENTER":"64.9667"},{"RA_OF_ASC_NODE":"2.0596","TIME_SYSTEM":"UTC","ECCENTRICITY":"0.00017690","OBJECT_TYPE":"PAYLOAD","ELEMENT_SET_NO":"999","INCLINATION":"53.0545","CENTER_NAME":"EARTH","TLE_LINE1":"1 44922U 20001J   22082.77473246  .00000901  00000-0  79410-4 0  9993","CLASSIFICATION_TYPE":"U","EPOCH":"2022-03-23T18:35:36.884544","BSTAR":"0.00007941000000","OBJECT_ID":"2020-001J","PERIOD":"95.592","DECAY_DATE":null,"MEAN_MOTION_DOT":"0.00000901","MEAN_MOTION_DDOT":"0.0000000000000","REF_FRAME":"TEME","OBJECT_NAME":"STARLINK-1104","SEMIMAJOR_AXIS":"6925.348","APOAPSIS":"548.438","PERIAPSIS":"545.988","GP_ID":"199536045","REV_AT_EPOCH":"12176","MEAN_ANOMALY":"296.6886","SITE":"AFETR","EPHEMERIS_TYPE":"0","TLE_LINE2":"2 44922  53.0545   2.0596 0001769  63.4284 296.6886 15.06400103121769","LAUNCH_DATE":"2020-01-07","MEAN_ELEMENT_THEORY":"SGP4","NORAD_CAT_ID":"44922","COUNTRY_CODE":"US","RCS_SIZE":"LARGE","ARG_OF_PERICENTER":"63.4284","FILE":"3371636","MEAN_MOTION":"15.06400103"},{"ELEMENT_SET_NO":"999","OBJECT_TYPE":"PAYLOAD","TLE_LINE1":"1 44923U 20001K   22082.46880418 -.00001992  00000-0 -11488-3 0  9996","CENTER_NAME":"EARTH","INCLINATION":"53.0566","RA_OF_ASC_NODE":"3.4442","ECCENTRICITY":"0.00016850","TIME_SYSTEM":"UTC","OBJECT_NAME":"STARLINK-1106","REF_FRAME":"TEME","MEAN_MOTION_DDOT":"0.0000000000000","PERIAPSIS":"546.071","APOAPSIS":"548.405","SEMIMAJOR_AXIS":"6925.373","BSTAR":"-0.00011488000000","EPOCH":"2022-03-23T11:15:04.681152","CLASSIFICATION_TYPE":"U","MEAN_MOTION_DOT":"-0.00001992","DECAY_DATE":null,"PERIOD":"95.593","OBJECT_ID":"2020-001K","EPHEMERIS_TYPE":"0","TLE_LINE2":"2 44923  53.0566   3.4442 0001685  64.9106 295.2058 15.06391904121713","REV_AT_EPOCH":"12171","GP_ID":"199475486","SITE":"AFETR","MEAN_ANOMALY":"295.2058","MEAN_MOTION":"15.06391904","FILE":"3371208","ARG_OF_PERICENTER":"64.9106","NORAD_CAT_ID":"44923","MEAN_ELEMENT_THEORY":"SGP4","LAUNCH_DATE":"2020-01-07","RCS_SIZE":"LARGE","COUNTRY_CODE":"US"},{"FILE":"3371208","MEAN_MOTION":"15.06406845","ARG_OF_PERICENTER":"69.6720","MEAN_ELEMENT_THEORY":"SGP4","NORAD_CAT_ID":"44924","LAUNCH_DATE":"2020-01-07","RCS_SIZE":"LARGE","COUNTRY_CODE":"US","TLE_LINE2":"2 44924  53.0570   4.3909 0001733  69.6720 290.4455 15.06406845121680","EPHEMERIS_TYPE":"0","REV_AT_EPOCH":"12168","GP_ID":"199474750","MEAN_ANOMALY":"290.4455","SITE":"AFETR","REF_FRAME":"TEME","OBJECT_NAME":"STARLINK-1111","MEAN_MOTION_DDOT":"0.0000000000000","PERIAPSIS":"545.992","APOAPSIS":"548.393","SEMIMAJOR_AXIS":"6925.328","BSTAR":"0.00000298670000","CLASSIFICATION_TYPE":"U","EPOCH":"2022-03-23T06:12:31.142592","DECAY_DATE":null,"MEAN_MOTION_DOT":"-0.00000237","OBJECT_ID":"2020-001L","PERIOD":"95.592","ELEMENT_SET_NO":"999","OBJECT_TYPE":"PAYLOAD","TLE_LINE1":"1 44924U 20001L   22082.25869378 -.00000237  00000-0  29867-5 0  9998","CENTER_NAME":"EARTH","INCLINATION":"53.0570","RA_OF_ASC_NODE":"4.3909","ECCENTRICITY":"0.00017330","TIME_SYSTEM":"UTC"},{"MEAN_MOTION_DDOT":"0.0000000000000","OBJECT_NAME":"STARLINK-1112","REF_FRAME":"TEME","SEMIMAJOR_AXIS":"6925.353","APOAPSIS":"548.385","PERIAPSIS":"546.051","EPOCH":"2022-03-23T17:42:32.215104","CLASSIFICATION_TYPE":"U","BSTAR":"0.00003308000000","PERIOD":"95.592","OBJECT_ID":"2020-001M","DECAY_DATE":null,"MEAN_MOTION_DOT":"0.00000211","OBJECT_TYPE":"PAYLOAD","ELEMENT_SET_NO":"999","INCLINATION":"53.0562","CENTER_NAME":"EARTH","TLE_LINE1":"1 44925U 20001M   22082.73787286  .00000211  00000-0  33080-4 0  9991","RA_OF_ASC_NODE":"2.2307","TIME_SYSTEM":"UTC","ECCENTRICITY":"0.00016850","ARG_OF_PERICENTER":"55.3382","MEAN_MOTION":"15.06398661","FILE":"3371636","LAUNCH_DATE":"2020-01-07","NORAD_CAT_ID":"44925","MEAN_ELEMENT_THEORY":"SGP4","COUNTRY_CODE":"US","RCS_SIZE":"LARGE","TLE_LINE2":"2 44925  53.0562   2.2307 0001685  55.3382 304.7765 15.06398661121750","EPHEMERIS_TYPE":"0","GP_ID":"199535294","REV_AT_EPOCH":"12175","SITE":"AFETR","MEAN_ANOMALY":"304.7765"},{"REV_AT_EPOCH":"12247","GP_ID":"199535545","SITE":"AFETR","MEAN_ANOMALY":"292.1985","EPHEMERIS_TYPE":"0","TLE_LINE2":"2 44926  53.0027   2.1124 0001669  67.9180 292.1985 15.05596453122472","NORAD_CAT_ID":"44926","MEAN_ELEMENT_THEORY":"SGP4","LAUNCH_DATE":"2020-01-07","RCS_SIZE":"LARGE","COUNTRY_CODE":"US","MEAN_MOTION":"15.05596453","FILE":"3371636","ARG_OF_PERICENTER":"67.9180","RA_OF_ASC_NODE":"2.1124","ECCENTRICITY":"0.00016690","TIME_SYSTEM":"UTC","ELEMENT_SET_NO":"999","OBJECT_TYPE":"PAYLOAD","TLE_LINE1":"1 44926U 20001N   22082.76702535  .00003754  00000-0  27654-3 0  9993","INCLINATION":"53.0027","CENTER_NAME":"EARTH","BSTAR":"0.00027654000000","EPOCH":"2022-03-23T18:24:30.990240","CLASSIFICATION_TYPE":"U","DECAY_DATE":null,"MEAN_MOTION_DOT":"0.00003754","PERIOD":"95.643","OBJECT_ID":"2020-001N","OBJECT_NAME":"STARLINK-1113","REF_FRAME":"TEME","MEAN_MOTION_DDOT":"0.0000000000000","APOAPSIS":"550.834","PERIAPSIS":"548.521","SEMIMAJOR_AXIS":"6927.812"},{"CENTER_NAME":"EARTH","INCLINATION":"53.0558","TLE_LINE1":"1 44927U 20001P   22082.54988372  .00000843  00000-0  75458-4 0  9997","OBJECT_TYPE":"PAYLOAD","ELEMENT_SET_NO":"999","TIME_SYSTEM":"UTC","ECCENTRICITY":"0.00018200","RA_OF_ASC_NODE":"3.0720","SEMIMAJOR_AXIS":"6925.329","PERIAPSIS":"545.934","APOAPSIS":"548.455","MEAN_MOTION_DDOT":"0.0000000000000","REF_FRAME":"TEME","OBJECT_NAME":"STARLINK-1114","OBJECT_ID":"2020-001P","PERIOD":"95.592","DECAY_DATE":null,"MEAN_MOTION_DOT":"0.00000843","CLASSIFICATION_TYPE":"U","EPOCH":"2022-03-23T13:11:49.953408","BSTAR":"0.00007545800000","EPHEMERIS_TYPE":"0","TLE_LINE2":"2 44927  53.0558   3.0720 0001820  60.6915 299.4255 15.06406338121730","MEAN_ANOMALY":"299.4255","SITE":"AFETR","GP_ID":"199475987","REV_AT_EPOCH":"12173","ARG_OF_PERICENTER":"60.6915","FILE":"3371208","MEAN_MOTION":"15.06406338","COUNTRY_CODE":"US","RCS_SIZE":"LARGE","LAUNCH_DATE":"2020-01-07","MEAN_ELEMENT_THEORY":"SGP4","NORAD_CAT_ID":"44927"},{"MEAN_MOTION":"15.06401301","FILE":"3371522","ARG_OF_PERICENTER":"53.8267","NORAD_CAT_ID":"44928","MEAN_ELEMENT_THEORY":"SGP4","LAUNCH_DATE":"2020-01-07","RCS_SIZE":"LARGE","COUNTRY_CODE":"US","EPHEMERIS_TYPE":"0","TLE_LINE2":"2 44928  53.0551   3.0987 0001640  53.8267 306.2873 15.06401301121731","REV_AT_EPOCH":"12173","GP_ID":"199513567","SITE":"AFETR","MEAN_ANOMALY":"306.2873","OBJECT_NAME":"STARLINK-1119","REF_FRAME":"TEME","MEAN_MOTION_DDOT":"0.0000000000000","PERIAPSIS":"546.074","APOAPSIS":"548.345","SEMIMAJOR_AXIS":"6925.345","BSTAR":"0.00004075000000","EPOCH":"2022-03-23T13:06:31.746528","CLASSIFICATION_TYPE":"U","DECAY_DATE":null,"MEAN_MOTION_DOT":"0.00000325","PERIOD":"95.592","OBJECT_ID":"2020-001Q","ELEMENT_SET_NO":"999","OBJECT_TYPE":"PAYLOAD","TLE_LINE1":"1 44928U 20001Q   22082.54620077  .00000325  00000-0  40750-4 0  9995","CENTER_NAME":"EARTH","INCLINATION":"53.0551","RA_OF_ASC_NODE":"3.0987","ECCENTRICITY":"0.00016400","TIME_SYSTEM":"UTC"}];
